{
  "norad_id": 59377,
  "name": "STARLINK-31716",
  "history": [
    {
      "epoch": "2026-03-28T19:24:52.425504",
      "apogee_km": 475.9653088671812,
      "perigee_km": 474.5229462750731,
      "latitude_deg": -36.91446995712987,
      "longitude_deg": -164.64174943999387,
      "semi_major_axis_km": 6853.381127571127,
      "eccentricity": 0.00010523,
      "inclination_deg": 53.1602,
      "raan_deg": 118.2066,
      "arg_perigee_deg": 82.3995,
      "mean_anomaly_deg": 277.7125,
      "mean_motion_rev_day": 15.30190268
    }
  ]
}